[{"OBJECT_NAME":"ONEWEB-0566","OBJECT_ID":"2023-043R","EPOCH":"2026-02-19T02:41:44.178432","MEAN_MOTION":13.21825272,"ECCENTRICITY":0.00015781,"INCLINATION":87.9173,"RA_OF_ASC_NODE":267.5254,"ARG_OF_PERICENTER":99.0435,"MEAN_ANOMALY":261.0878,"EPHEMERIS_TYPE":0,"CLASSIFICATION_TYPE":"U","NORAD_CAT_ID":56061,"ELEMENT_SET_NO":999,"REV_AT_EPOCH":14263,"BSTAR":0.00012026412,"MEAN_MOTION_DOT":6.3e-7,"MEAN_MOTION_DDOT":0},{"OBJECT_NAME":"ONEWEB-0568","OBJECT_ID":"2023-043S","EPOCH":"2026-02-19T01:31:39.183744","MEAN_MOTION":13.16595442,"ECCENTRICITY":0.00017887,"INCLINATION":87.8997,"RA_OF_ASC_NODE":252.2783,"ARG_OF_PERICENTER":83.6514,"MEAN_ANOMALY":276.4821,"EPHEMERIS_TYPE":0,"CLASSIFICATION_TYPE":"U","NORAD_CAT_ID":56062,"ELEMENT_SET_NO":999,"REV_AT_EPOCH":14343,"BSTAR":4.3618447e-5,"MEAN_MOTION_DOT":3.0e-7,"MEAN_MOTION_DDOT":0},{"OBJECT_NAME":"ONEWEB-0574","OBJECT_ID":"2023-043T","EPOCH":"2026-02-19T02:32:14.708256","MEAN_MOTION":13.21824319,"ECCENTRICITY":0.00014807,"INCLINATION":87.9186,"RA_OF_ASC_NODE":267.5172,"ARG_OF_PERICENTER":82.2066,"MEAN_ANOMALY":277.9236,"EPHEMERIS_TYPE":0,"CLASSIFICATION_TYPE":"U","NORAD_CAT_ID":56063,"ELEMENT_SET_NO":999,"REV_AT_EPOCH":14267,"BSTAR":0.00011432193,"MEAN_MOTION_DOT":6.0e-7,"MEAN_MOTION_DDOT":0},{"OBJECT_NAME":"ONEWEB-0575","OBJECT_ID":"2023-043U","EPOCH":"2026-02-19T01:22:31.809504","MEAN_MOTION":13.16595437,"ECCENTRICITY":0.00015315,"INCLINATION":87.8995,"RA_OF_ASC_NODE":252.2772,"ARG_OF_PERICENTER":75.8534,"MEAN_ANOMALY":284.2767,"EPHEMERIS_TYPE":0,"CLASSIFICATION_TYPE":"U","NORAD_CAT_ID":56064,"ELEMENT_SET_NO":999,"REV_AT_EPOCH":14342,"BSTAR":-8.5847083e-5,"MEAN_MOTION_DOT":-2.0e-7,"MEAN_MOTION_DDOT":0},{"OBJECT_NAME":"ONEWEB-0576","OBJECT_ID":"2023-043V","EPOCH":"2026-02-19T02:44:36.464352","MEAN_MOTION":13.16595784,"ECCENTRICITY":0.00015304,"INCLINATION":87.9001,"RA_OF_ASC_NODE":252.2693,"ARG_OF_PERICENTER":84.1929,"MEAN_ANOMALY":275.9376,"EPHEMERIS_TYPE":0,"CLASSIFICATION_TYPE":"U","NORAD_CAT_ID":56065,"ELEMENT_SET_NO":999,"REV_AT_EPOCH":14342,"BSTAR":-0.00014818886,"MEAN_MOTION_DOT":-4.4e-7,"MEAN_MOTION_DDOT":0},{"OBJECT_NAME":"ONEWEB-0577","OBJECT_ID":"2023-043W","EPOCH":"2026-02-19T02:53:43.581984","MEAN_MOTION":13.16596128,"ECCENTRICITY":0.0001258,"INCLINATION":87.9,"RA_OF_ASC_NODE":252.2667,"ARG_OF_PERICENTER":60.8364,"MEAN_ANOMALY":299.2892,"EPHEMERIS_TYPE":0,"CLASSIFICATION_TYPE":"U","NORAD_CAT_ID":56066,"ELEMENT_SET_NO":999,"REV_AT_EPOCH":14345,"BSTAR":1.7794042e-5,"MEAN_MOTION_DOT":2.0e-7,"MEAN_MOTION_DDOT":0},{"OBJECT_NAME":"ONEWEB-0578","OBJECT_ID":"2023-043X","EPOCH":"2026-02-19T02:13:17.671296","MEAN_MOTION":13.21826024,"ECCENTRICITY":0.00018004,"INCLINATION":87.9177,"RA_OF_ASC_NODE":267.5285,"ARG_OF_PERICENTER":84.5114,"MEAN_ANOMALY":275.6225,"EPHEMERIS_TYPE":0,"CLASSIFICATION_TYPE":"U","NORAD_CAT_ID":56067,"ELEMENT_SET_NO":999,"REV_AT_EPOCH":14263,"BSTAR":0.00019896415,"MEAN_MOTION_DOT":9.5e-7,"MEAN_MOTION_DDOT":0},{"OBJECT_NAME":"ONEWEB-0579","OBJECT_ID":"2023-043Y","EPOCH":"2026-02-19T01:59:04.588800","MEAN_MOTION":13.21824984,"ECCENTRICITY":0.00014035,"INCLINATION":87.9181,"RA_OF_ASC_NODE":267.5196,"ARG_OF_PERICENTER":97.1875,"MEAN_ANOMALY":262.9418,"EPHEMERIS_TYPE":0,"CLASSIFICATION_TYPE":"U","NORAD_CAT_ID":56068,"ELEMENT_SET_NO":999,"REV_AT_EPOCH":14264,"BSTAR":0.00020780679,"MEAN_MOTION_DOT":9.9e-7,"MEAN_MOTION_DDOT":0},{"OBJECT_NAME":"ONEWEB-0581","OBJECT_ID":"2023-043Z","EPOCH":"2026-02-19T03:02:51.798624","MEAN_MOTION":13.16596122,"ECCENTRICITY":0.00012622,"INCLINATION":87.8998,"RA_OF_ASC_NODE":252.2772,"ARG_OF_PERICENTER":70.3801,"MEAN_ANOMALY":289.7466,"EPHEMERIS_TYPE":0,"CLASSIFICATION_TYPE":"U","NORAD_CAT_ID":56069,"ELEMENT_SET_NO":999,"REV_AT_EPOCH":14342,"BSTAR":-0.00020364912,"MEAN_MOTION_DOT":-6.5e-7,"MEAN_MOTION_DDOT":0},{"OBJECT_NAME":"ONEWEB-0609","OBJECT_ID":"2023-043AA","EPOCH":"2026-02-19T03:25:35.756544","MEAN_MOTION":13.15549681,"ECCENTRICITY":0.00015929,"INCLINATION":87.8963,"RA_OF_ASC_NODE":282.7877,"ARG_OF_PERICENTER":85.7159,"MEAN_ANOMALY":274.4153,"EPHEMERIS_TYPE":0,"CLASSIFICATION_TYPE":"U","NORAD_CAT_ID":56070,"ELEMENT_SET_NO":999,"REV_AT_EPOCH":14091,"BSTAR":-6.7927426e-5,"MEAN_MOTION_DOT":-1.3e-7,"MEAN_MOTION_DDOT":0},{"OBJECT_NAME":"ONEWEB-0613","OBJECT_ID":"2023-043AB","EPOCH":"2026-02-19T03:18:45.127584","MEAN_MOTION":13.15550136,"ECCENTRICITY":0.00014321,"INCLINATION":87.8963,"RA_OF_ASC_NODE":282.7994,"ARG_OF_PERICENTER":92.6696,"MEAN_ANOMALY":267.4598,"EPHEMERIS_TYPE":0,"CLASSIFICATION_TYPE":"U","NORAD_CAT_ID":56071,"ELEMENT_SET_NO":999,"REV_AT_EPOCH":14091,"BSTAR":-0.00019351511,"MEAN_MOTION_DOT":-6.0e-7,"MEAN_MOTION_DDOT":0},{"OBJECT_NAME":"ONEWEB-0630","OBJECT_ID":"2023-043AC","EPOCH":"2026-02-19T03:11:53.867904","MEAN_MOTION":13.15546793,"ECCENTRICITY":0.00014203,"INCLINATION":87.8962,"RA_OF_ASC_NODE":282.7711,"ARG_OF_PERICENTER":93.376,"MEAN_ANOMALY":266.7532,"EPHEMERIS_TYPE":0,"CLASSIFICATION_TYPE":"U","NORAD_CAT_ID":56072,"ELEMENT_SET_NO":999,"REV_AT_EPOCH":14090,"BSTAR":-0.00036830393,"MEAN_MOTION_DOT":-1.26e-6,"MEAN_MOTION_DDOT":0},{"OBJECT_NAME":"ONEWEB-0632","OBJECT_ID":"2023-043AD","EPOCH":"2026-02-19T03:05:03.513696","MEAN_MOTION":13.15549801,"ECCENTRICITY":0.00013916,"INCLINATION":87.8966,"RA_OF_ASC_NODE":282.789,"ARG_OF_PERICENTER":81.9558,"MEAN_ANOMALY":278.173,"EPHEMERIS_TYPE":0,"CLASSIFICATION_TYPE":"U","NORAD_CAT_ID":56073,"ELEMENT_SET_NO":999,"REV_AT_EPOCH":14090,"BSTAR":-0.0002430655,"MEAN_MOTION_DOT":-7.9e-7,"MEAN_MOTION_DDOT":0},{"OBJECT_NAME":"ONEWEB-0633","OBJECT_ID":"2023-043AE","EPOCH":"2026-02-19T02:55:56.186112","MEAN_MOTION":13.15550369,"ECCENTRICITY":0.00015856,"INCLINATION":87.8974,"RA_OF_ASC_NODE":282.7562,"ARG_OF_PERICENTER":102.1377,"MEAN_ANOMALY":257.9931,"EPHEMERIS_TYPE":0,"CLASSIFICATION_TYPE":"U","NORAD_CAT_ID":56074,"ELEMENT_SET_NO":999,"REV_AT_EPOCH":14088,"BSTAR":-0.00015429912,"MEAN_MOTION_DOT":-4.5e-7,"MEAN_MOTION_DDOT":0},{"OBJECT_NAME":"ONEWEB-0634","OBJECT_ID":"2023-043AF","EPOCH":"2026-02-19T02:35:23.896608","MEAN_MOTION":13.15549906,"ECCENTRICITY":0.00018463,"INCLINATION":87.8967,"RA_OF_ASC_NODE":282.8095,"ARG_OF_PERICENTER":86.7519,"MEAN_ANOMALY":273.3823,"EPHEMERIS_TYPE":0,"CLASSIFICATION_TYPE":"U","NORAD_CAT_ID":56075,"ELEMENT_SET_NO":999,"REV_AT_EPOCH":14087,"BSTAR":0.00017159802,"MEAN_MOTION_DOT":7.7e-7,"MEAN_MOTION_DDOT":0},{"OBJECT_NAME":"ONEWEB-0635","OBJECT_ID":"2023-043AG","EPOCH":"2026-02-19T02:28:32.802816","MEAN_MOTION":13.15549822,"ECCENTRICITY":0.00013306,"INCLINATION":87.8969,"RA_OF_ASC_NODE":282.7633,"ARG_OF_PERICENTER":73.4215,"MEAN_ANOMALY":286.7061,"EPHEMERIS_TYPE":0,"CLASSIFICATION_TYPE":"U","NORAD_CAT_ID":56076,"ELEMENT_SET_NO":999,"REV_AT_EPOCH":14090,"BSTAR":0.00032825133,"MEAN_MOTION_DOT":1.36e-6,"MEAN_MOTION_DDOT":0}]
