ONEWEB-0566             
1 56061U 23043R   26050.11231688  .00000063  00000+0  12026-3 0  9995
2 56061  87.9173 267.5254 0001578  99.0435 261.0878 13.21825272142638
ONEWEB-0568             
1 56062U 23043S   26050.06364796  .00000030  00000+0  43618-4 0  9993
2 56062  87.8997 252.2783 0001788  83.6514 276.4821 13.16595442143434
ONEWEB-0574             
1 56063U 23043T   26050.10572579  .00000060  00000+0  11432-3 0  9990
2 56063  87.9186 267.5172 0001480  82.2066 277.9236 13.21824319142678
ONEWEB-0575             
1 56064U 23043U   26050.05731261 -.00000020  00000+0 -85847-4 0  9990
2 56064  87.8995 252.2772 0001531  75.8534 284.2767 13.16595437143422
ONEWEB-0576             
1 56065U 23043V   26050.11431093 -.00000044  00000+0 -14819-3 0  9994
2 56065  87.9001 252.2693 0001530  84.1929 275.9376 13.16595784143422
ONEWEB-0577             
1 56066U 23043W   26050.12064331  .00000020  00000+0  17794-4 0  9991
2 56066  87.9000 252.2667 0001258  60.8364 299.2892 13.16596128143452
ONEWEB-0578             
1 56067U 23043X   26050.09256564  .00000095  00000+0  19896-3 0  9995
2 56067  87.9177 267.5285 0001800  84.5114 275.6225 13.21826024142636
ONEWEB-0579             
1 56068U 23043Y   26050.08269200  .00000099  00000+0  20781-3 0  9995
2 56068  87.9181 267.5196 0001403  97.1875 262.9418 13.21824984142643
ONEWEB-0581             
1 56069U 23043Z   26050.12698841 -.00000065  00000+0 -20365-3 0  9991
2 56069  87.8998 252.2772 0001262  70.3801 289.7466 13.16596122143426
ONEWEB-0609             
1 56070U 23043AA  26050.14277496 -.00000013  00000+0 -67927-4 0  9993
2 56070  87.8963 282.7877 0001592  85.7159 274.4153 13.15549681140918
ONEWEB-0613             
1 56071U 23043AB  26050.13802231 -.00000060  00000+0 -19352-3 0  9994
2 56071  87.8963 282.7994 0001432  92.6696 267.4598 13.15550136140917
ONEWEB-0630             
1 56072U 23043AC  26050.13326236 -.00000126  00000+0 -36830-3 0  9994
2 56072  87.8962 282.7711 0001420  93.3760 266.7532 13.15546793140904
ONEWEB-0632             
1 56073U 23043AD  26050.12851289 -.00000079  00000+0 -24307-3 0  9998
2 56073  87.8966 282.7890 0001391  81.9558 278.1730 13.15549801140902
ONEWEB-0633             
1 56074U 23043AE  26050.12217808 -.00000045  00000+0 -15430-3 0  9992
2 56074  87.8974 282.7562 0001585 102.1377 257.9931 13.15550369140884
ONEWEB-0634             
1 56075U 23043AF  26050.10791547  .00000077  00000+0  17160-3 0  9993
2 56075  87.8967 282.8095 0001846  86.7519 273.3823 13.15549906140870
ONEWEB-0635             
1 56076U 23043AG  26050.10315744  .00000136  00000+0  32825-3 0  9996
2 56076  87.8969 282.7633 0001330  73.4215 286.7061 13.15549822140907
